start=new Date('2023-03-05T00:00:00.000Z').valueOf();
sats=[{"MEAN_ELEMENT_THEORY":"SGP4","INCLINATION":"53.2161","REV_AT_EPOCH":"2320","TLE_LINE2":"2 53972  53.2161 121.0512 0001706  80.4039 279.7146 15.08829357 23207","CLASSIFICATION_TYPE":"U","GP_ID":"227512147","COUNTRY_CODE":"US","ECCENTRICITY":"0.00017060","SITE":"AFWTR","EPOCH":"2023-03-04T20:52:54.420384","OBJECT_NAME":"STARLINK-5157","LAUNCH_DATE":"2022-10-05","APOAPSIS":"540.958","RCS_SIZE":"LARGE","ARG_OF_PERICENTER":"80.4039","FILE":"3851350","MEAN_MOTION":"15.08829357","RA_OF_ASC_NODE":"121.0512","DECAY_DATE":null,"EPHEMERIS_TYPE":"0","PERIOD":"95.438","MEAN_ANOMALY":"279.7146","MEAN_MOTION_DOT":"0.00012305","NORAD_CAT_ID":"53972","TLE_LINE1":"1 53972U 22125J   23063.87007431  .00012305  00000-0  79008-3 0  9990","PERIAPSIS":"538.598","MEAN_MOTION_DDOT":"0.0000000000000","OBJECT_ID":"2022-125J","BSTAR":"0.00079008000000","ELEMENT_SET_NO":"999","SEMIMAJOR_AXIS":"6917.913","CENTER_NAME":"EARTH","REF_FRAME":"TEME","OBJECT_TYPE":"PAYLOAD","TIME_SYSTEM":"UTC"},{"MEAN_MOTION_DOT":"0.00031356","PERIAPSIS":"538.379","TLE_LINE1":"1 53973U 22125K   23063.64597085  .00031356  00000-0  19781-2 0  9993","NORAD_CAT_ID":"53973","MEAN_ANOMALY":"263.5751","DECAY_DATE":null,"EPHEMERIS_TYPE":"0","PERIOD":"95.436","REF_FRAME":"TEME","SEMIMAJOR_AXIS":"6917.803","CENTER_NAME":"EARTH","TIME_SYSTEM":"UTC","OBJECT_TYPE":"PAYLOAD","OBJECT_ID":"2022-125K","MEAN_MOTION_DDOT":"0.0000000000000","ELEMENT_SET_NO":"999","BSTAR":"0.00197810000000","SITE":"AFWTR","ECCENTRICITY":"0.00018640","EPOCH":"2023-03-04T15:30:11.881440","GP_ID":"227511885","COUNTRY_CODE":"US","OBJECT_NAME":"STARLINK-5156","MEAN_ELEMENT_THEORY":"SGP4","TLE_LINE2":"2 53973  53.2169 126.7785 0001864  96.5453 263.5751 15.08865228 23102","REV_AT_EPOCH":"2310","CLASSIFICATION_TYPE":"U","INCLINATION":"53.2169","MEAN_MOTION":"15.08865228","FILE":"3851350","RCS_SIZE":"LARGE","ARG_OF_PERICENTER":"96.5453","RA_OF_ASC_NODE":"126.7785","APOAPSIS":"540.958","LAUNCH_DATE":"2022-10-05"},{"MEAN_MOTION_DOT":"0.00023187","NORAD_CAT_ID":"53974","PERIAPSIS":"538.806","TLE_LINE1":"1 53974U 22125L   23063.81338323  .00023187  00000-0  14702-2 0  9992","DECAY_DATE":null,"PERIOD":"95.438","EPHEMERIS_TYPE":"0","MEAN_ANOMALY":"288.1719","CENTER_NAME":"EARTH","SEMIMAJOR_AXIS":"6917.883","REF_FRAME":"TEME","OBJECT_TYPE":"PAYLOAD","TIME_SYSTEM":"UTC","MEAN_MOTION_DDOT":"0.0000000000000","OBJECT_ID":"2022-125L","BSTAR":"0.00147020000000","ELEMENT_SET_NO":"999","COUNTRY_CODE":"US","GP_ID":"227510647","EPOCH":"2023-03-04T19:31:16.311072","SITE":"AFWTR","ECCENTRICITY":"0.00013620","OBJECT_NAME":"STARLINK-5159","MEAN_ELEMENT_THEORY":"SGP4","INCLINATION":"53.2191","CLASSIFICATION_TYPE":"U","REV_AT_EPOCH":"2341","TLE_LINE2":"2 53974  53.2191 105.7436 0001362  71.9422 288.1719 15.08839103 23418","ARG_OF_PERICENTER":"71.9422","RCS_SIZE":"LARGE","MEAN_MOTION":"15.08839103","FILE":"3851350","RA_OF_ASC_NODE":"105.7436","LAUNCH_DATE":"2022-10-05","APOAPSIS":"540.690"},{"MEAN_ELEMENT_THEORY":"SGP4","CLASSIFICATION_TYPE":"U","TLE_LINE2":"2 53975  53.2176 121.0185 0001386  98.5547 261.5603 15.10481878 23202","REV_AT_EPOCH":"2320","INCLINATION":"53.2176","EPOCH":"2023-03-04T20:44:20.396544","ECCENTRICITY":"0.00013860","SITE":"AFWTR","COUNTRY_CODE":"US","GP_ID":"227510896","OBJECT_NAME":"STARLINK-5137","APOAPSIS":"535.689","LAUNCH_DATE":"2022-10-05","FILE":"3851350","MEAN_MOTION":"15.10481878","ARG_OF_PERICENTER":"98.5547","RCS_SIZE":"LARGE","RA_OF_ASC_NODE":"121.0185","MEAN_ANOMALY":"261.5603","DECAY_DATE":null,"EPHEMERIS_TYPE":"0","PERIOD":"95.334","MEAN_MOTION_DOT":"0.00021307","TLE_LINE1":"1 53975U 22125M   23063.86412496  .00021307  00000-0  12934-2 0  9999","PERIAPSIS":"533.773","NORAD_CAT_ID":"53975","OBJECT_ID":"2022-125M","MEAN_MOTION_DDOT":"0.0000000000000","ELEMENT_SET_NO":"999","BSTAR":"0.00129340000000","REF_FRAME":"TEME","CENTER_NAME":"EARTH","SEMIMAJOR_AXIS":"6912.866","TIME_SYSTEM":"UTC","OBJECT_TYPE":"PAYLOAD"},{"ECCENTRICITY":"0.00010950","SITE":"AFWTR","EPOCH":"2023-03-04T19:53:52.695168","GP_ID":"227511648","COUNTRY_CODE":"US","OBJECT_NAME":"STARLINK-5134","MEAN_ELEMENT_THEORY":"SGP4","TLE_LINE2":"2 53976  53.2180 105.8550 0001095 118.1652 241.9451 15.08829188 23410","REV_AT_EPOCH":"2341","CLASSIFICATION_TYPE":"U","INCLINATION":"53.2180","MEAN_MOTION":"15.08829188","FILE":"3851350","RCS_SIZE":"LARGE","ARG_OF_PERICENTER":"118.1652","RA_OF_ASC_NODE":"105.8550","APOAPSIS":"540.536","LAUNCH_DATE":"2022-10-05","MEAN_MOTION_DOT":"-0.00006314","PERIAPSIS":"539.021","TLE_LINE1":"1 53976U 22125N   23063.82908212 -.00006314  00000-0 -37907-3 0  9993","NORAD_CAT_ID":"53976","MEAN_ANOMALY":"241.9451","EPHEMERIS_TYPE":"0","DECAY_DATE":null,"PERIOD":"95.438","REF_FRAME":"TEME","SEMIMAJOR_AXIS":"6917.913","CENTER_NAME":"EARTH","TIME_SYSTEM":"UTC","OBJECT_TYPE":"PAYLOAD","OBJECT_ID":"2022-125N","MEAN_MOTION_DDOT":"0.0000000000000","ELEMENT_SET_NO":"999","BSTAR":"-0.00037907000000"},{"APOAPSIS":"540.473","LAUNCH_DATE":"2022-10-05","RA_OF_ASC_NODE":"121.0227","FILE":"3851350","MEAN_MOTION":"15.08844686","RCS_SIZE":"LARGE","ARG_OF_PERICENTER":"100.6438","TLE_LINE2":"2 53977  53.2172 121.0227 0001072 100.6438 259.4675 15.08844686 23205","REV_AT_EPOCH":"2320","CLASSIFICATION_TYPE":"U","INCLINATION":"53.2172","MEAN_ELEMENT_THEORY":"SGP4","OBJECT_NAME":"STARLINK-5094","ECCENTRICITY":"0.00010720","SITE":"AFWTR","EPOCH":"2023-03-04T20:46:12.745056","GP_ID":"227512385","COUNTRY_CODE":"US","ELEMENT_SET_NO":"999","BSTAR":"0.00107480000000","OBJECT_ID":"2022-125P","MEAN_MOTION_DDOT":"0.0000000000000","TIME_SYSTEM":"UTC","OBJECT_TYPE":"PAYLOAD","REF_FRAME":"TEME","SEMIMAJOR_AXIS":"6917.866","CENTER_NAME":"EARTH","MEAN_ANOMALY":"259.4675","PERIOD":"95.437","DECAY_DATE":null,"EPHEMERIS_TYPE":"0","PERIAPSIS":"538.989","TLE_LINE1":"1 53977U 22125P   23063.86542529  .00016861  00000-0  10748-2 0  9992","NORAD_CAT_ID":"53977","MEAN_MOTION_DOT":"0.00016861"},{"APOAPSIS":"540.484","LAUNCH_DATE":"2022-10-05","FILE":"3851350","MEAN_MOTION":"15.08820849","RCS_SIZE":"LARGE","ARG_OF_PERICENTER":"158.2190","RA_OF_ASC_NODE":"120.8964","MEAN_ELEMENT_THEORY":"SGP4","REV_AT_EPOCH":"2320","TLE_LINE2":"2 53978  53.2166 120.8964 0000983 158.2190 201.8844 15.08820849 23202","CLASSIFICATION_TYPE":"U","INCLINATION":"53.2166","ECCENTRICITY":"0.00009830","SITE":"AFWTR","EPOCH":"2023-03-04T20:15:45.322848","GP_ID":"227511147","COUNTRY_CODE":"US","OBJECT_NAME":"STARLINK-5148","OBJECT_ID":"2022-125Q","MEAN_MOTION_DDOT":"0.0000000000000","ELEMENT_SET_NO":"999","BSTAR":"-0.00015212000000","REF_FRAME":"TEME","SEMIMAJOR_AXIS":"6917.939","CENTER_NAME":"EARTH","TIME_SYSTEM":"UTC","OBJECT_TYPE":"PAYLOAD","MEAN_ANOMALY":"201.8844","DECAY_DATE":null,"EPHEMERIS_TYPE":"0","PERIOD":"95.439","MEAN_MOTION_DOT":"-0.00002707","TLE_LINE1":"1 53978U 22125Q   23063.84427457 -.00002707  00000-0 -15212-3 0  9991","PERIAPSIS":"539.124","NORAD_CAT_ID":"53978"},{"APOAPSIS":"540.723","LAUNCH_DATE":"2022-10-05","RA_OF_ASC_NODE":"120.9532","FILE":"3851350","MEAN_MOTION":"15.08839396","RCS_SIZE":"LARGE","ARG_OF_PERICENTER":"78.9757","TLE_LINE2":"2 53979  53.2174 120.9532 0001411  78.9757 281.1394 15.08839396 23206","REV_AT_EPOCH":"2320","CLASSIFICATION_TYPE":"U","INCLINATION":"53.2174","MEAN_ELEMENT_THEORY":"SGP4","OBJECT_NAME":"STARLINK-5123","SITE":"AFWTR","ECCENTRICITY":"0.00014110","EPOCH":"2023-03-04T20:30:18.011232","GP_ID":"227511396","COUNTRY_CODE":"US","ELEMENT_SET_NO":"999","BSTAR":"0.00089566000000","OBJECT_ID":"2022-125R","MEAN_MOTION_DDOT":"0.0000000000000","TIME_SYSTEM":"UTC","OBJECT_TYPE":"PAYLOAD","REF_FRAME":"TEME","SEMIMAJOR_AXIS":"6917.882","CENTER_NAME":"EARTH","MEAN_ANOMALY":"281.1394","DECAY_DATE":null,"PERIOD":"95.438","EPHEMERIS_TYPE":"0","TLE_LINE1":"1 53979U 22125R   23063.85437513  .00013995  00000-0  89566-3 0  9999","PERIAPSIS":"538.771","NORAD_CAT_ID":"53979","MEAN_MOTION_DOT":"0.00013995"},{"APOAPSIS":"540.710","LAUNCH_DATE":"2022-10-05","FILE":"3851350","MEAN_MOTION":"15.08798600","ARG_OF_PERICENTER":"112.4698","RCS_SIZE":"LARGE","RA_OF_ASC_NODE":"120.4035","MEAN_ELEMENT_THEORY":"SGP4","CLASSIFICATION_TYPE":"U","TLE_LINE2":"2 53980  53.2145 120.4035 0001212 112.4698   6.4485 15.08798600  1304","REV_AT_EPOCH":"130","INCLINATION":"53.2145","EPOCH":"2023-03-04T22:00:00.999936","SITE":"AFWTR","ECCENTRICITY":"0.00012120","COUNTRY_CODE":"US","GP_ID":"227512148","OBJECT_NAME":"STARLINK-5133","OBJECT_ID":"2022-125S","MEAN_MOTION_DDOT":"0.0000000000000","ELEMENT_SET_NO":"999","BSTAR":"0.00272200000000","REF_FRAME":"TEME","CENTER_NAME":"EARTH","SEMIMAJOR_AXIS":"6918.007","TIME_SYSTEM":"UTC","OBJECT_TYPE":"PAYLOAD","MEAN_ANOMALY":"6.4485","EPHEMERIS_TYPE":"0","DECAY_DATE":null,"PERIOD":"95.440","MEAN_MOTION_DOT":"0.00043249","PERIAPSIS":"539.033","TLE_LINE1":"1 53980U 22125S   23063.91667824  .00043249  00000-0  27220-2 0  9991","NORAD_CAT_ID":"53980"},{"RA_OF_ASC_NODE":"105.8544","ARG_OF_PERICENTER":"95.7916","RCS_SIZE":"LARGE","MEAN_MOTION":"15.08840907","FILE":"3851350","LAUNCH_DATE":"2022-10-05","APOAPSIS":"540.760","OBJECT_NAME":"STARLINK-5149","COUNTRY_CODE":"US","GP_ID":"227511886","EPOCH":"2023-03-04T19:52:30.050976","ECCENTRICITY":"0.00014710","SITE":"AFWTR","INCLINATION":"53.2164","CLASSIFICATION_TYPE":"U","TLE_LINE2":"2 53981  53.2164 105.8544 0001471  95.7916 264.3243 15.08840907 23412","REV_AT_EPOCH":"2341","MEAN_ELEMENT_THEORY":"SGP4","OBJECT_TYPE":"PAYLOAD","TIME_SYSTEM":"UTC","CENTER_NAME":"EARTH","SEMIMAJOR_AXIS":"6917.878","REF_FRAME":"TEME","BSTAR":"-0.00010904000000","ELEMENT_SET_NO":"999","MEAN_MOTION_DDOT":"0.0000000000000","OBJECT_ID":"2022-125T","NORAD_CAT_ID":"53981","PERIAPSIS":"538.725","TLE_LINE1":"1 53981U 22125T   23063.82812559 -.00002023  00000-0 -10904-3 0  9998","MEAN_MOTION_DOT":"-0.00002023","DECAY_DATE":null,"PERIOD":"95.437","EPHEMERIS_TYPE":"0","MEAN_ANOMALY":"264.3243"}];
